KUIPER-00104            
1 65142U 25171L   25337.40931433  .00001519  00000+0  17563-3 0  9991
2 65142  51.8951 222.9821 0002992 194.5077 165.5804 14.91228512 18643
KUIPER-00105            
1 65143U 25171M   25337.91196698  .00005880  00000+0  79878-3 0  9996
2 65143  51.9003 229.1782 0013430 146.1619 214.0203 14.79942528 18607
KUIPER-00106            
1 65144U 25171N   25337.90452584  .00012097  00000+0  10764-2 0  9991
2 65144  51.8933 230.0112 0009855 139.2642 220.9066 14.96386548 18596
KUIPER-00107            
1 65145U 25171P   25337.91670139 -.00006407  00000+0 -37973-3 0  9993
2 65145  51.8847 214.6329 0007137 192.0065  11.2801 15.09243709  4135
KUIPER-00108            
1 65146U 25171Q   25337.07324867 -.00002624  00000+0 -31438-3 0  9992
2 65146  51.9021 227.8241 0009066 151.6526 208.4932 14.79988831 18550
KUIPER-00109            
1 65147U 25171R   25337.91670139 -.00314399  00000+0 -34113-1 0  9998
2 65147  51.9138 219.2732 0012604 171.2234  14.3429 14.89486967  5180
KUIPER-00110            
1 65148U 25171S   25337.44815298  .00006439  00000+0  93723-3 0  9999
2 65148  51.8990 233.4928 0011569 147.9680 212.1986 14.76855306 18492
KUIPER-00111            
1 65149U 25171T   25337.90381923  .00008061  00000+0  10829-2 0  9992
2 65149  51.8981 236.6361 0009821 154.9772 205.1668 14.79999748 18498
