<?xml version="1.0" encoding="UTF-8"?>
<ndm xmlns:xsi="http://www.w3.org/2001/XMLSchema-instance" xsi:noNamespaceSchemaLocation="https://sanaregistry.org/r/ndmxml_unqualified/ndmxml-2.0.0-master-2.0.xsd">
<omm id="CCSDS_OMM_VERS" version="2.0">
<header><CREATION_DATE/><ORIGINATOR/></header><body><segment><metadata><OBJECT_NAME>KUIPER-00104</OBJECT_NAME><OBJECT_ID>2025-171L</OBJECT_ID><CENTER_NAME>EARTH</CENTER_NAME><REF_FRAME>TEME</REF_FRAME><TIME_SYSTEM>UTC</TIME_SYSTEM><MEAN_ELEMENT_THEORY>SGP4</MEAN_ELEMENT_THEORY></metadata><data><meanElements><EPOCH>2025-12-03T09:49:24.758112</EPOCH><MEAN_MOTION>14.91228512</MEAN_MOTION><ECCENTRICITY>.00029925</ECCENTRICITY><INCLINATION>51.8951</INCLINATION><RA_OF_ASC_NODE>222.9821</RA_OF_ASC_NODE><ARG_OF_PERICENTER>194.5077</ARG_OF_PERICENTER><MEAN_ANOMALY>165.5804</MEAN_ANOMALY></meanElements><tleParameters><EPHEMERIS_TYPE>0</EPHEMERIS_TYPE><CLASSIFICATION_TYPE>U</CLASSIFICATION_TYPE><NORAD_CAT_ID>65142</NORAD_CAT_ID><ELEMENT_SET_NO>999</ELEMENT_SET_NO><REV_AT_EPOCH>1864</REV_AT_EPOCH><BSTAR>.17562591E-3</BSTAR><MEAN_MOTION_DOT>.1519E-4</MEAN_MOTION_DOT><MEAN_MOTION_DDOT>0</MEAN_MOTION_DDOT></tleParameters></data></segment></body></omm>
<omm id="CCSDS_OMM_VERS" version="2.0">
<header><CREATION_DATE/><ORIGINATOR/></header><body><segment><metadata><OBJECT_NAME>KUIPER-00105</OBJECT_NAME><OBJECT_ID>2025-171M</OBJECT_ID><CENTER_NAME>EARTH</CENTER_NAME><REF_FRAME>TEME</REF_FRAME><TIME_SYSTEM>UTC</TIME_SYSTEM><MEAN_ELEMENT_THEORY>SGP4</MEAN_ELEMENT_THEORY></metadata><data><meanElements><EPOCH>2025-12-03T21:53:13.947072</EPOCH><MEAN_MOTION>14.79942528</MEAN_MOTION><ECCENTRICITY>.00134302</ECCENTRICITY><INCLINATION>51.9003</INCLINATION><RA_OF_ASC_NODE>229.1782</RA_OF_ASC_NODE><ARG_OF_PERICENTER>146.1619</ARG_OF_PERICENTER><MEAN_ANOMALY>214.0203</MEAN_ANOMALY></meanElements><tleParameters><EPHEMERIS_TYPE>0</EPHEMERIS_TYPE><CLASSIFICATION_TYPE>U</CLASSIFICATION_TYPE><NORAD_CAT_ID>65143</NORAD_CAT_ID><ELEMENT_SET_NO>999</ELEMENT_SET_NO><REV_AT_EPOCH>1860</REV_AT_EPOCH><BSTAR>.7987811E-3</BSTAR><MEAN_MOTION_DOT>.588E-4</MEAN_MOTION_DOT><MEAN_MOTION_DDOT>0</MEAN_MOTION_DDOT></tleParameters></data></segment></body></omm>
<omm id="CCSDS_OMM_VERS" version="2.0">
<header><CREATION_DATE/><ORIGINATOR/></header><body><segment><metadata><OBJECT_NAME>KUIPER-00106</OBJECT_NAME><OBJECT_ID>2025-171N</OBJECT_ID><CENTER_NAME>EARTH</CENTER_NAME><REF_FRAME>TEME</REF_FRAME><TIME_SYSTEM>UTC</TIME_SYSTEM><MEAN_ELEMENT_THEORY>SGP4</MEAN_ELEMENT_THEORY></metadata><data><meanElements><EPOCH>2025-12-03T21:42:31.032576</EPOCH><MEAN_MOTION>14.96386548</MEAN_MOTION><ECCENTRICITY>.00098554</ECCENTRICITY><INCLINATION>51.8933</INCLINATION><RA_OF_ASC_NODE>230.0112</RA_OF_ASC_NODE><ARG_OF_PERICENTER>139.2642</ARG_OF_PERICENTER><MEAN_ANOMALY>220.9066</MEAN_ANOMALY></meanElements><tleParameters><EPHEMERIS_TYPE>0</EPHEMERIS_TYPE><CLASSIFICATION_TYPE>U</CLASSIFICATION_TYPE><NORAD_CAT_ID>65144</NORAD_CAT_ID><ELEMENT_SET_NO>999</ELEMENT_SET_NO><REV_AT_EPOCH>1859</REV_AT_EPOCH><BSTAR>.10763696E-2</BSTAR><MEAN_MOTION_DOT>.12097E-3</MEAN_MOTION_DOT><MEAN_MOTION_DDOT>0</MEAN_MOTION_DDOT></tleParameters></data></segment></body></omm>
<omm id="CCSDS_OMM_VERS" version="2.0">
<header><CREATION_DATE/><ORIGINATOR/></header><body><segment><metadata><OBJECT_NAME>KUIPER-00107</OBJECT_NAME><OBJECT_ID>2025-171P</OBJECT_ID><CENTER_NAME>EARTH</CENTER_NAME><REF_FRAME>TEME</REF_FRAME><TIME_SYSTEM>UTC</TIME_SYSTEM><MEAN_ELEMENT_THEORY>SGP4</MEAN_ELEMENT_THEORY></metadata><data><meanElements><EPOCH>2025-12-03T22:00:03.000096</EPOCH><MEAN_MOTION>15.09243709</MEAN_MOTION><ECCENTRICITY>.00071372</ECCENTRICITY><INCLINATION>51.8847</INCLINATION><RA_OF_ASC_NODE>214.6329</RA_OF_ASC_NODE><ARG_OF_PERICENTER>192.0065</ARG_OF_PERICENTER><MEAN_ANOMALY>11.2801</MEAN_ANOMALY></meanElements><tleParameters><EPHEMERIS_TYPE>0</EPHEMERIS_TYPE><CLASSIFICATION_TYPE>U</CLASSIFICATION_TYPE><NORAD_CAT_ID>65145</NORAD_CAT_ID><ELEMENT_SET_NO>999</ELEMENT_SET_NO><REV_AT_EPOCH>413</REV_AT_EPOCH><BSTAR>-.37973402E-3</BSTAR><MEAN_MOTION_DOT>-.6407E-4</MEAN_MOTION_DOT><MEAN_MOTION_DDOT>0</MEAN_MOTION_DDOT></tleParameters></data></segment></body></omm>
<omm id="CCSDS_OMM_VERS" version="2.0">
<header><CREATION_DATE/><ORIGINATOR/></header><body><segment><metadata><OBJECT_NAME>KUIPER-00108</OBJECT_NAME><OBJECT_ID>2025-171Q</OBJECT_ID><CENTER_NAME>EARTH</CENTER_NAME><REF_FRAME>TEME</REF_FRAME><TIME_SYSTEM>UTC</TIME_SYSTEM><MEAN_ELEMENT_THEORY>SGP4</MEAN_ELEMENT_THEORY></metadata><data><meanElements><EPOCH>2025-12-03T01:45:28.685088</EPOCH><MEAN_MOTION>14.79988831</MEAN_MOTION><ECCENTRICITY>.00090668</ECCENTRICITY><INCLINATION>51.9021</INCLINATION><RA_OF_ASC_NODE>227.8241</RA_OF_ASC_NODE><ARG_OF_PERICENTER>151.6526</ARG_OF_PERICENTER><MEAN_ANOMALY>208.4932</MEAN_ANOMALY></meanElements><tleParameters><EPHEMERIS_TYPE>0</EPHEMERIS_TYPE><CLASSIFICATION_TYPE>U</CLASSIFICATION_TYPE><NORAD_CAT_ID>65146</NORAD_CAT_ID><ELEMENT_SET_NO>999</ELEMENT_SET_NO><REV_AT_EPOCH>1855</REV_AT_EPOCH><BSTAR>-.31438375E-3</BSTAR><MEAN_MOTION_DOT>-.2624E-4</MEAN_MOTION_DOT><MEAN_MOTION_DDOT>0</MEAN_MOTION_DDOT></tleParameters></data></segment></body></omm>
<omm id="CCSDS_OMM_VERS" version="2.0">
<header><CREATION_DATE/><ORIGINATOR/></header><body><segment><metadata><OBJECT_NAME>KUIPER-00109</OBJECT_NAME><OBJECT_ID>2025-171R</OBJECT_ID><CENTER_NAME>EARTH</CENTER_NAME><REF_FRAME>TEME</REF_FRAME><TIME_SYSTEM>UTC</TIME_SYSTEM><MEAN_ELEMENT_THEORY>SGP4</MEAN_ELEMENT_THEORY></metadata><data><meanElements><EPOCH>2025-12-03T22:00:03.000096</EPOCH><MEAN_MOTION>14.89486967</MEAN_MOTION><ECCENTRICITY>.00126048</ECCENTRICITY><INCLINATION>51.9138</INCLINATION><RA_OF_ASC_NODE>219.2732</RA_OF_ASC_NODE><ARG_OF_PERICENTER>171.2234</ARG_OF_PERICENTER><MEAN_ANOMALY>14.3429</MEAN_ANOMALY></meanElements><tleParameters><EPHEMERIS_TYPE>0</EPHEMERIS_TYPE><CLASSIFICATION_TYPE>U</CLASSIFICATION_TYPE><NORAD_CAT_ID>65147</NORAD_CAT_ID><ELEMENT_SET_NO>999</ELEMENT_SET_NO><REV_AT_EPOCH>518</REV_AT_EPOCH><BSTAR>-.34113206E-1</BSTAR><MEAN_MOTION_DOT>-.314399E-2</MEAN_MOTION_DOT><MEAN_MOTION_DDOT>0</MEAN_MOTION_DDOT></tleParameters></data></segment></body></omm>
<omm id="CCSDS_OMM_VERS" version="2.0">
<header><CREATION_DATE/><ORIGINATOR/></header><body><segment><metadata><OBJECT_NAME>KUIPER-00110</OBJECT_NAME><OBJECT_ID>2025-171S</OBJECT_ID><CENTER_NAME>EARTH</CENTER_NAME><REF_FRAME>TEME</REF_FRAME><TIME_SYSTEM>UTC</TIME_SYSTEM><MEAN_ELEMENT_THEORY>SGP4</MEAN_ELEMENT_THEORY></metadata><data><meanElements><EPOCH>2025-12-03T10:45:20.417472</EPOCH><MEAN_MOTION>14.76855306</MEAN_MOTION><ECCENTRICITY>.0011569</ECCENTRICITY><INCLINATION>51.8990</INCLINATION><RA_OF_ASC_NODE>233.4928</RA_OF_ASC_NODE><ARG_OF_PERICENTER>147.9680</ARG_OF_PERICENTER><MEAN_ANOMALY>212.1986</MEAN_ANOMALY></meanElements><tleParameters><EPHEMERIS_TYPE>0</EPHEMERIS_TYPE><CLASSIFICATION_TYPE>U</CLASSIFICATION_TYPE><NORAD_CAT_ID>65148</NORAD_CAT_ID><ELEMENT_SET_NO>999</ELEMENT_SET_NO><REV_AT_EPOCH>1849</REV_AT_EPOCH><BSTAR>.93722523E-3</BSTAR><MEAN_MOTION_DOT>.6439E-4</MEAN_MOTION_DOT><MEAN_MOTION_DDOT>0</MEAN_MOTION_DDOT></tleParameters></data></segment></body></omm>
<omm id="CCSDS_OMM_VERS" version="2.0">
<header><CREATION_DATE/><ORIGINATOR/></header><body><segment><metadata><OBJECT_NAME>KUIPER-00111</OBJECT_NAME><OBJECT_ID>2025-171T</OBJECT_ID><CENTER_NAME>EARTH</CENTER_NAME><REF_FRAME>TEME</REF_FRAME><TIME_SYSTEM>UTC</TIME_SYSTEM><MEAN_ELEMENT_THEORY>SGP4</MEAN_ELEMENT_THEORY></metadata><data><meanElements><EPOCH>2025-12-03T21:41:29.981472</EPOCH><MEAN_MOTION>14.79999748</MEAN_MOTION><ECCENTRICITY>.00098211</ECCENTRICITY><INCLINATION>51.8981</INCLINATION><RA_OF_ASC_NODE>236.6361</RA_OF_ASC_NODE><ARG_OF_PERICENTER>154.9772</ARG_OF_PERICENTER><MEAN_ANOMALY>205.1668</MEAN_ANOMALY></meanElements><tleParameters><EPHEMERIS_TYPE>0</EPHEMERIS_TYPE><CLASSIFICATION_TYPE>U</CLASSIFICATION_TYPE><NORAD_CAT_ID>65149</NORAD_CAT_ID><ELEMENT_SET_NO>999</ELEMENT_SET_NO><REV_AT_EPOCH>1849</REV_AT_EPOCH><BSTAR>.10828622E-2</BSTAR><MEAN_MOTION_DOT>.8061E-4</MEAN_MOTION_DOT><MEAN_MOTION_DDOT>0</MEAN_MOTION_DDOT></tleParameters></data></segment></body></omm>

</ndm>
